[{"OBJECT_NAME":"IRIDIUM 151","OBJECT_ID":"2017-083E","EPOCH":"2026-03-09T21:03:19.137312","MEAN_MOTION":14.34219156,"ECCENTRICITY":0.00022172,"INCLINATION":86.4026,"RA_OF_ASC_NODE":3.558,"ARG_OF_PERICENTER":86.5929,"MEAN_ANOMALY":273.552,"EPHEMERIS_TYPE":0,"CLASSIFICATION_TYPE":"U","NORAD_CAT_ID":43074,"ELEMENT_SET_NO":999,"REV_AT_EPOCH":42990,"BSTAR":0.00015053451,"MEAN_MOTION_DOT":4.41e-6,"MEAN_MOTION_DDOT":0},{"OBJECT_NAME":"SL-16 DEB","OBJECT_ID":"1992-093KF","EPOCH":"2026-03-09T05:52:16.295520","MEAN_MOTION":14.32706196,"ECCENTRICITY":0.00061205,"INCLINATION":71.0135,"RA_OF_ASC_NODE":16.0505,"ARG_OF_PERICENTER":230.7795,"MEAN_ANOMALY":129.2795,"EPHEMERIS_TYPE":0,"CLASSIFICATION_TYPE":"U","NORAD_CAT_ID":39715,"ELEMENT_SET_NO":999,"REV_AT_EPOCH":62020,"BSTAR":0.00058616331,"MEAN_MOTION_DOT":1.547e-5,"MEAN_MOTION_DDOT":0}]
